[{"OBJECT_NAME":"STARLINK-3977","OBJECT_ID":"2022-052AU","EPOCH":"2026-03-09T22:45:39.404736","MEAN_MOTION":15.08837461,"ECCENTRICITY":0.00016362,"INCLINATION":53.2156,"RA_OF_ASC_NODE":257.9904,"ARG_OF_PERICENTER":102.9877,"MEAN_ANOMALY":257.1297,"EPHEMERIS_TYPE":0,"CLASSIFICATION_TYPE":"U","NORAD_CAT_ID":52640,"ELEMENT_SET_NO":999,"REV_AT_EPOCH":21116,"BSTAR":-6.237293e-6,"MEAN_MOTION_DOT":-3.87e-6,"MEAN_MOTION_DDOT":0},{"OBJECT_NAME":"CZ-6A DEB","OBJECT_ID":"2022-151BX","EPOCH":"2026-03-09T18:04:18.424992","MEAN_MOTION":15.16566225,"ECCENTRICITY":0.00404449,"INCLINATION":98.6231,"RA_OF_ASC_NODE":169.9483,"ARG_OF_PERICENTER":104.1368,"MEAN_ANOMALY":256.4361,"EPHEMERIS_TYPE":0,"CLASSIFICATION_TYPE":"U","NORAD_CAT_ID":54328,"ELEMENT_SET_NO":999,"REV_AT_EPOCH":10563,"BSTAR":0.0050960293,"MEAN_MOTION_DOT":0.00102794,"MEAN_MOTION_DDOT":0}]
